GLOBALSTAR M067         
1 32263U 07048A   25356.83892958 -.00000079  00000+0  13750-3 0  9993
2 32263  51.9699 203.9160 0002020  53.9835 318.5980 12.40683179832902
GLOBALSTAR M070         
1 32264U 07048B   25357.24088350 -.00000063  00000+0  22996-3 0  9998
2 32264  51.9756 272.5648 0000572  63.6335 101.4117 12.62327737837548
GLOBALSTAR M066         
1 32265U 07048C   25357.83704421 -.00000086  00000+0  75154-4 0  9998
2 32265  51.9568 201.2925 0005731  44.6949 328.1693 12.30383730838648
GLOBALSTAR M068         
1 32266U 07048D   25357.22776242 -.00000075  00000+0  16299-3 0  9994
2 32266  51.9890  85.9903 0001487 164.6288 213.4570 12.62835704841443
GLOBALSTAR M079         
1 37188U 10054A   25357.81632921 -.00000060  00000+0  24395-3 0  9993
2 37188  52.0048 282.5263 0000810  37.3672 355.2462 12.62261823700404
GLOBALSTAR M074         
1 37189U 10054B   25357.12601373 -.00000071  00000+0  18144-3 0  9992
2 37189  52.0026 283.9208 0000855  60.3095 313.5283 12.62264314700922
GLOBALSTAR M076         
1 37190U 10054C   25357.78701897 -.00000078  00000+0  14396-3 0  9990
2 37190  52.0039 282.0980 0000969  52.0075 326.0025 12.62268366700729
GLOBALSTAR M077         
1 37191U 10054D   25357.74866553 -.00000079  00000+0 -95172-5 0  9993
2 37191  51.9976 264.9238 0001359  42.0577 331.7961 11.68176455700648
